start=new Date('2021-09-25T00:00:00.000Z').valueOf();
sats=[{"TLE_LINE2":"2 49160  70.0000  96.5473 0007913 230.0364 250.1135 15.78254007  2021","ECCENTRICITY":"0.00079130","SEMIMAJOR_AXIS":"6713.524","PERIAPSIS":"330.077","GP_ID":"185430945","BSTAR":"-0.00719710000000","TIME_SYSTEM":"UTC","SITE":"AFWTR","RCS_SIZE":null,"MEAN_MOTION_DDOT":"0.0000000000000","INCLINATION":"70.0000","OBJECT_ID":"2021-082AG","EPOCH":"2021-09-24T22:00:00.999936","CENTER_NAME":"EARTH","TLE_LINE1":"1 49160U 21082AG  21267.91667824 -.01114320  00000-0 -71971-2 0  9995","PERIOD":"91.240","REV_AT_EPOCH":"202","MEAN_MOTION_DOT":"-0.01114320","LAUNCH_DATE":"2021-09-14","REF_FRAME":"TEME","RA_OF_ASC_NODE":"96.5473","MEAN_MOTION":"15.78254007","ELEMENT_SET_NO":"999","DECAY_DATE":null,"MEAN_ELEMENT_THEORY":"SGP4","OBJECT_NAME":"STARLINK-3095","NORAD_CAT_ID":"49160","EPHEMERIS_TYPE":"0","MEAN_ANOMALY":"250.1135","FILE":"3126800","COUNTRY_CODE":"US","OBJECT_TYPE":"PAYLOAD","CLASSIFICATION_TYPE":"U","ARG_OF_PERICENTER":"230.0364","APOAPSIS":"340.702"},{"TLE_LINE1":"1 49161U 21082AH  21267.91667824 -.01113230  00000-0 -72207-2 0  9998","PERIOD":"91.246","EPOCH":"2021-09-24T22:00:00.999936","CENTER_NAME":"EARTH","REV_AT_EPOCH":"202","SEMIMAJOR_AXIS":"6713.795","PERIAPSIS":"330.386","ECCENTRICITY":"0.00078550","TLE_LINE2":"2 49161  70.0000  96.5509 0007855 229.4426 247.6475 15.78158620  2020","INCLINATION":"70.0000","MEAN_MOTION_DDOT":"0.0000000000000","OBJECT_ID":"2021-082AH","SITE":"AFWTR","TIME_SYSTEM":"UTC","RCS_SIZE":null,"GP_ID":"185431265","BSTAR":"-0.00722070000000","FILE":"3126800","MEAN_ANOMALY":"247.6475","COUNTRY_CODE":"US","EPHEMERIS_TYPE":"0","NORAD_CAT_ID":"49161","APOAPSIS":"340.934","ARG_OF_PERICENTER":"229.4426","OBJECT_TYPE":"PAYLOAD","CLASSIFICATION_TYPE":"U","RA_OF_ASC_NODE":"96.5509","REF_FRAME":"TEME","LAUNCH_DATE":"2021-09-14","MEAN_MOTION_DOT":"-0.01113230","OBJECT_NAME":"STARLINK-3080","ELEMENT_SET_NO":"999","DECAY_DATE":null,"MEAN_ELEMENT_THEORY":"SGP4","MEAN_MOTION":"15.78158620"},{"REV_AT_EPOCH":"202","PERIOD":"91.234","TLE_LINE1":"1 49162U 21082AJ  21267.91667824 -.01113067  00000-0 -71568-2 0  9996","EPOCH":"2021-09-24T22:00:00.999936","CENTER_NAME":"EARTH","OBJECT_ID":"2021-082AJ","INCLINATION":"70.0000","MEAN_MOTION_DDOT":"0.0000000000000","SITE":"AFWTR","TIME_SYSTEM":"UTC","RCS_SIZE":null,"BSTAR":"-0.00715680000000","GP_ID":"185431050","PERIAPSIS":"329.820","SEMIMAJOR_AXIS":"6713.249","ECCENTRICITY":"0.00078860","TLE_LINE2":"2 49162  70.0000  96.5437 0007886 229.4171 253.7390 15.78351069  2028","APOAPSIS":"340.408","ARG_OF_PERICENTER":"229.4171","OBJECT_TYPE":"PAYLOAD","CLASSIFICATION_TYPE":"U","COUNTRY_CODE":"US","FILE":"3126800","MEAN_ANOMALY":"253.7390","NORAD_CAT_ID":"49162","EPHEMERIS_TYPE":"0","OBJECT_NAME":"STARLINK-3082","MEAN_ELEMENT_THEORY":"SGP4","ELEMENT_SET_NO":"999","DECAY_DATE":null,"MEAN_MOTION":"15.78351069","RA_OF_ASC_NODE":"96.5437","REF_FRAME":"TEME","LAUNCH_DATE":"2021-09-14","MEAN_MOTION_DOT":"-0.01113067"},{"REV_AT_EPOCH":"202","CENTER_NAME":"EARTH","EPOCH":"2021-09-24T22:00:00.999936","PERIOD":"91.237","TLE_LINE1":"1 49163U 21082AK  21267.91667824 -.01112736  00000-0 -71699-2 0  9994","SITE":"AFWTR","TIME_SYSTEM":"UTC","RCS_SIZE":null,"BSTAR":"-0.00716990000000","GP_ID":"185430834","OBJECT_ID":"2021-082AK","INCLINATION":"70.0000","MEAN_MOTION_DDOT":"0.0000000000000","TLE_LINE2":"2 49163  70.0000  96.5456 0007936 228.8445 252.8061 15.78302318  2021","SEMIMAJOR_AXIS":"6713.387","PERIAPSIS":"329.925","ECCENTRICITY":"0.00079360","ARG_OF_PERICENTER":"228.8445","OBJECT_TYPE":"PAYLOAD","CLASSIFICATION_TYPE":"U","APOAPSIS":"340.580","EPHEMERIS_TYPE":"0","NORAD_CAT_ID":"49163","COUNTRY_CODE":"US","FILE":"3126800","MEAN_ANOMALY":"252.8061","MEAN_ELEMENT_THEORY":"SGP4","ELEMENT_SET_NO":"999","DECAY_DATE":null,"MEAN_MOTION":"15.78302318","OBJECT_NAME":"STARLINK-3088","LAUNCH_DATE":"2021-09-14","MEAN_MOTION_DOT":"-0.01112736","RA_OF_ASC_NODE":"96.5456","REF_FRAME":"TEME"},{"APOAPSIS":"339.872","ARG_OF_PERICENTER":"228.6007","CLASSIFICATION_TYPE":"U","OBJECT_TYPE":"PAYLOAD","COUNTRY_CODE":"US","FILE":"3126800","MEAN_ANOMALY":"260.6812","NORAD_CAT_ID":"49164","EPHEMERIS_TYPE":"0","OBJECT_NAME":"STARLINK-3106","MEAN_ELEMENT_THEORY":"SGP4","DECAY_DATE":null,"ELEMENT_SET_NO":"999","MEAN_MOTION":"15.78534184","RA_OF_ASC_NODE":"96.5365","REF_FRAME":"TEME","LAUNCH_DATE":"2021-09-14","MEAN_MOTION_DOT":"-0.01111900","REV_AT_EPOCH":"202","PERIOD":"91.224","TLE_LINE1":"1 49164U 21082AL  21267.91667824 -.01111900  00000-0 -70896-2 0  9995","CENTER_NAME":"EARTH","EPOCH":"2021-09-24T22:00:00.999936","OBJECT_ID":"2021-082AL","MEAN_MOTION_DDOT":"0.0000000000000","INCLINATION":"70.0000","SITE":"AFWTR","RCS_SIZE":null,"TIME_SYSTEM":"UTC","BSTAR":"-0.00708960000000","GP_ID":"185430621","SEMIMAJOR_AXIS":"6712.730","PERIAPSIS":"329.318","ECCENTRICITY":"0.00078610","TLE_LINE2":"2 49164  70.0000  96.5365 0007861 228.6007 260.6812 15.78534184  2029"},{"CLASSIFICATION_TYPE":"U","OBJECT_TYPE":"PAYLOAD","ARG_OF_PERICENTER":"227.8990","APOAPSIS":"340.336","EPHEMERIS_TYPE":"0","NORAD_CAT_ID":"49165","FILE":"3126800","MEAN_ANOMALY":"256.7884","COUNTRY_CODE":"US","MEAN_MOTION":"15.78395971","MEAN_ELEMENT_THEORY":"SGP4","ELEMENT_SET_NO":"999","DECAY_DATE":null,"OBJECT_NAME":"STARLINK-3052","MEAN_MOTION_DOT":"-0.01110760","LAUNCH_DATE":"2021-09-14","REF_FRAME":"TEME","RA_OF_ASC_NODE":"96.5420","REV_AT_EPOCH":"202","CENTER_NAME":"EARTH","EPOCH":"2021-09-24T22:00:00.999936","PERIOD":"91.232","TLE_LINE1":"1 49165U 21082AM  21267.91667824 -.01110760  00000-0 -71253-2 0  9997","BSTAR":"-0.00712530000000","GP_ID":"185431373","RCS_SIZE":null,"SITE":"AFWTR","TIME_SYSTEM":"UTC","OBJECT_ID":"2021-082AM","INCLINATION":"70.0000","MEAN_MOTION_DDOT":"0.0000000000000","TLE_LINE2":"2 49165  70.0000  96.5420 0007968 227.8990 256.7884 15.78395971  2026","ECCENTRICITY":"0.00079680","SEMIMAJOR_AXIS":"6713.122","PERIAPSIS":"329.638"},{"APOAPSIS":"340.007","ARG_OF_PERICENTER":"229.1069","OBJECT_TYPE":"PAYLOAD","CLASSIFICATION_TYPE":"U","MEAN_ANOMALY":"258.6015","FILE":"3126646","COUNTRY_CODE":"US","NORAD_CAT_ID":"49166","EPHEMERIS_TYPE":"0","OBJECT_NAME":"STARLINK-3089","ELEMENT_SET_NO":"999","DECAY_DATE":null,"MEAN_ELEMENT_THEORY":"SGP4","MEAN_MOTION":"15.78492179","RA_OF_ASC_NODE":"96.5384","REF_FRAME":"TEME","LAUNCH_DATE":"2021-09-14","MEAN_MOTION_DOT":"-0.01112624","REV_AT_EPOCH":"299","TLE_LINE1":"1 49166U 21082AN  21267.91667824 -.01112624  00000-0 -71081-2 0  9998","PERIOD":"91.226","EPOCH":"2021-09-24T22:00:00.999936","CENTER_NAME":"EARTH","MEAN_MOTION_DDOT":"0.0000000000000","INCLINATION":"70.0000","OBJECT_ID":"2021-082AN","RCS_SIZE":null,"SITE":"AFWTR","TIME_SYSTEM":"UTC","GP_ID":"185404770","BSTAR":"-0.00710810000000","SEMIMAJOR_AXIS":"6712.849","PERIAPSIS":"329.422","ECCENTRICITY":"0.00078840","TLE_LINE2":"2 49166  70.0000  96.5384 0007884 229.1069 258.6015 15.78492179  2996"},{"CENTER_NAME":"EARTH","EPOCH":"2021-09-24T22:00:00.999936","TLE_LINE1":"1 49167U 21082AP  21267.91667824 -.01112675  00000-0 -71238-2 0  9999","PERIOD":"91.229","REV_AT_EPOCH":"202","TLE_LINE2":"2 49167  70.0000  96.5402 0007881 229.1695 257.0308 15.78444651  2024","SEMIMAJOR_AXIS":"6712.984","PERIAPSIS":"329.558","ECCENTRICITY":"0.00078810","SITE":"AFWTR","TIME_SYSTEM":"UTC","RCS_SIZE":null,"GP_ID":"185431158","BSTAR":"-0.00712380000000","INCLINATION":"70.0000","MEAN_MOTION_DDOT":"0.0000000000000","OBJECT_ID":"2021-082AP","NORAD_CAT_ID":"49167","EPHEMERIS_TYPE":"0","MEAN_ANOMALY":"257.0308","FILE":"3126800","COUNTRY_CODE":"US","ARG_OF_PERICENTER":"229.1695","OBJECT_TYPE":"PAYLOAD","CLASSIFICATION_TYPE":"U","APOAPSIS":"340.139","LAUNCH_DATE":"2021-09-14","MEAN_MOTION_DOT":"-0.01112675","RA_OF_ASC_NODE":"96.5402","REF_FRAME":"TEME","DECAY_DATE":null,"ELEMENT_SET_NO":"999","MEAN_ELEMENT_THEORY":"SGP4","MEAN_MOTION":"15.78444651","OBJECT_NAME":"STARLINK-3054"},{"TLE_LINE2":"2 49168  70.0000  96.5311 0007884 228.2689 265.5566 15.78672938  2021","SEMIMAJOR_AXIS":"6712.337","PERIAPSIS":"328.910","ECCENTRICITY":"0.00078840","SITE":"AFWTR","TIME_SYSTEM":"UTC","RCS_SIZE":null,"GP_ID":"185430946","BSTAR":"-0.00704090000000","INCLINATION":"70.0000","MEAN_MOTION_DDOT":"0.0000000000000","OBJECT_ID":"2021-082AQ","CENTER_NAME":"EARTH","EPOCH":"2021-09-24T22:00:00.999936","TLE_LINE1":"1 49168U 21082AQ  21267.91667824 -.01111320  00000-0 -70409-2 0  9995","PERIOD":"91.216","REV_AT_EPOCH":"202","LAUNCH_DATE":"2021-09-14","MEAN_MOTION_DOT":"-0.01111320","RA_OF_ASC_NODE":"96.5311","REF_FRAME":"TEME","DECAY_DATE":null,"ELEMENT_SET_NO":"999","MEAN_ELEMENT_THEORY":"SGP4","MEAN_MOTION":"15.78672938","OBJECT_NAME":"STARLINK-3101","NORAD_CAT_ID":"49168","EPHEMERIS_TYPE":"0","FILE":"3126800","MEAN_ANOMALY":"265.5566","COUNTRY_CODE":"US","ARG_OF_PERICENTER":"228.2689","OBJECT_TYPE":"PAYLOAD","CLASSIFICATION_TYPE":"U","APOAPSIS":"339.494"},{"REV_AT_EPOCH":"202","PERIOD":"91.221","TLE_LINE1":"1 49169U 21082AR  21267.91667824 -.01112395  00000-0 -70762-2 0  9991","CENTER_NAME":"EARTH","EPOCH":"2021-09-24T22:00:00.999936","OBJECT_ID":"2021-082AR","INCLINATION":"70.0000","MEAN_MOTION_DDOT":"0.0000000000000","BSTAR":"-0.00707620000000","GP_ID":"185431266","TIME_SYSTEM":"UTC","SITE":"AFWTR","RCS_SIZE":null,"ECCENTRICITY":"0.00078890","PERIAPSIS":"329.152","SEMIMAJOR_AXIS":"6712.582","TLE_LINE2":"2 49169  70.0000  96.5349 0007889 228.8594 261.8688 15.78586277  2023","APOAPSIS":"339.743","OBJECT_TYPE":"PAYLOAD","CLASSIFICATION_TYPE":"U","ARG_OF_PERICENTER":"228.8594","FILE":"3126800","MEAN_ANOMALY":"261.8688","COUNTRY_CODE":"US","NORAD_CAT_ID":"49169","EPHEMERIS_TYPE":"0","OBJECT_NAME":"STARLINK-3046","MEAN_MOTION":"15.78586277","MEAN_ELEMENT_THEORY":"SGP4","DECAY_DATE":null,"ELEMENT_SET_NO":"999","REF_FRAME":"TEME","RA_OF_ASC_NODE":"96.5349","MEAN_MOTION_DOT":"-0.01112395","LAUNCH_DATE":"2021-09-14"}];
